ORBCOMM FM115           
1 41186U 15081H   25131.63683075  .00000742  00000+0  17960-3 0  9993
2 41186  46.9979 213.3831 0001742 256.3911 103.6782 14.62443487502421
ORBCOMM FM108           
1 41187U 15081J   25131.78566992  .00000941  00000+0  23893-3 0  9991
2 41187  47.0050 278.8728 0002607 163.5808 196.5163 14.58095553501481
ORBCOMM FM117           
1 41188U 15081K   25131.75188738  .00000937  00000+0  23811-3 0  9992
2 41188  47.0013 277.8063 0003136 168.7981 191.2974 14.58097730501525
ORBCOMM FM116           
1 41189U 15081L   25132.01500421  .00000947  00000+0  24018-3 0  9991
2 41189  47.0037   6.4107 0002465 339.1541  20.9244 14.58110095500445
